ONEWEB-0080             
1 45426U 20020C   25045.20172157  .00000333  00000+0  90450-3 0  9995
2 45426  87.8875 118.3417 0002345 108.0387 252.0997 13.11413601238752
ONEWEB-0090             
1 45427U 20020D   25045.21865863 -.00000392  00000+0 -11408-2 0  9992
2 45427  87.8880 118.3322 0001944 103.2918 256.8426 13.11414173238726
ONEWEB-0061             
1 45428U 20020E   25044.48778764  .00000508  00000+0  13974-2 0  9991
2 45428  87.8877 118.4654 0001919 103.8593 256.2749 13.11418165238579
ONEWEB-0081             
1 45429U 20020F   25044.46926577 -.00000323  00000+0 -94781-3 0  9990
2 45429  87.8878 118.4887 0001844 111.0114 249.1211 13.11418655238687
ONEWEB-0069             
1 45430U 20020G   25044.23018910 -.00000438  00000+0 -12715-2 0  9993
2 45430  87.8878 118.5260 0001993 101.5257 258.6095 13.11415020238589
ONEWEB-0031             
1 45431U 20020H   25045.19324593  .00000484  00000+0  13290-2 0  9995
2 45431  87.8883 118.3571 0001923 101.3649 258.7695 13.11415283238695
ONEWEB-0027             
1 45432U 20020J   25045.18901232  .00000028  00000+0  39611-4 0  9997
2 45432  87.9047 103.0730 0001923  89.3333 270.8019 13.17650565242096
ONEWEB-0064             
1 45433U 20020K   25044.42858774  .00000456  00000+0  12494-2 0  9999
2 45433  87.8879 118.5075 0002018  99.6252 260.5104 13.11414413238621
